Satellite: ZA-AeroSat
Catalog number: 42713
Epoch time: 17252.780649
Element set: 999
Inclination: 51.640000 deg
RA of node: 335.082100 deg
Eccentricity: 0.000146
Arg of perigee: 221.010100 deg
Mean anomaly: 139.078200 deg
Mean motion: 15.573996 rev/day
Decay rate: 3.064400e-04 rev/day^2
Epoch rev: 1768

Satellite: LINK
Catalog number: 42714
Epoch time: 17252.506014
Element set: 999
Inclination: 51.639700 deg
RA of node: 336.243900 deg
Eccentricity: 0.000141
Arg of perigee: 248.068200 deg
Mean anomaly: 112.016100 deg
Mean motion: 15.583463 rev/day
Decay rate: 4.885800e-04 rev/day^2
Epoch rev: 1775

Satellite: UPSat
Catalog number: 42716
Epoch time: 17252.490907
Element set: 999
Inclination: 51.640400 deg
RA of node: 336.146800 deg
Eccentricity: 0.000471
Arg of perigee: 295.337400 deg
Mean anomaly: 64.713000 deg
Mean motion: 15.583973 rev/day
Decay rate: 4.188500e-04 rev/day^2
Epoch rev: 177

Satellite: SpaceCube
Catalog number: 42717
Epoch time: 17252.765523
Element set: 999
Inclination: 51.640100 deg
RA of node: 334.979800 deg
Eccentricity: 0.000455
Arg of perigee: 294.760900 deg
Mean anomaly: 65.290900 deg
Mean motion: 15.578600 rev/day
Decay rate: 3.874900e-04 rev/day^2
Epoch rev: 1705

Satellite: Hoopoe
Catalog number: 42718
Epoch time: 17252.692400
Element set: 999
Inclination: 51.640000 deg
RA of node: 335.243600 deg
Eccentricity: 0.000459
Arg of perigee: 294.764700 deg
Mean anomaly: 65.286800 deg
Mean motion: 15.581583 rev/day
Decay rate: 4.325300e-04 rev/day^2
Epoch rev: 1704

Satellite: Challenger
Catalog number: 42721
Epoch time: 17252.757152
Element set: 999
Inclination: 51.639500 deg
RA of node: 334.920100 deg
Eccentricity: 0.000709
Arg of perigee: 272.442200 deg
Mean anomaly: 87.575900 deg
Mean motion: 15.587382 rev/day
Decay rate: 5.831000e-04 rev/day^2
Epoch rev: 1675

Satellite: NJUST-1
Catalog number: 42722
Epoch time: 17252.610288
Element set: 999
Inclination: 51.640100 deg
RA of node: 336.191000 deg
Eccentricity: 0.000708
Arg of perigee: 268.600200 deg
Mean anomaly: 91.417900 deg
Mean motion: 15.571239 rev/day
Decay rate: 3.547400e-04 rev/day^2
Epoch rev: 1672

Satellite: UNSW-EC0
Catalog number: 42723
Epoch time: 17252.847127
Element set: 999
Inclination: 51.640100 deg
RA of node: 334.775200 deg
Eccentricity: 0.000693
Arg of perigee: 270.898000 deg
Mean anomaly: 89.121900 deg
Mean motion: 15.578937 rev/day
Decay rate: 4.619400e-04 rev/day^2
Epoch rev: 1674

Satellite: DUTHsat
Catalog number: 42724
Epoch time: 17252.766440
Element set: 999
Inclination: 51.640300 deg
RA of node: 334.984800 deg
Eccentricity: 0.000626
Arg of perigee: 276.872600 deg
Mean anomaly: 83.155400 deg
Mean motion: 15.585568 rev/day
Decay rate: 5.736000e-04 rev/day^2
Epoch rev: 1665

Satellite: LO-90
Catalog number: 42725
Epoch time: 17252.611238
Element set: 999
Inclination: 51.640200 deg
RA of node: 336.199200 deg
Eccentricity: 0.000614
Arg of perigee: 273.790700 deg
Mean anomaly: 86.238300 deg
Mean motion: 15.572733 rev/day
Decay rate: 3.867800e-04 rev/day^2
Epoch rev: 166

Satellite: nSIGHT1
Catalog number: 42726
Epoch time: 17252.767191
Element set: 999
Inclination: 51.640700 deg
RA of node: 335.742500 deg
Eccentricity: 0.000609
Arg of perigee: 272.427300 deg
Mean anomaly: 87.602100 deg
Mean motion: 15.562560 rev/day
Decay rate: 2.337400e-04 rev/day^2
Epoch rev: 1665

Satellite: QBITO
Catalog number: 42728
Epoch time: 17252.595569
Element set: 999
Inclination: 51.640900 deg
RA of node: 336.098200 deg
Eccentricity: 0.000364
Arg of perigee: 287.926400 deg
Mean anomaly: 72.133100 deg
Mean motion: 15.576554 rev/day
Decay rate: 4.317400e-04 rev/day^2
Epoch rev: 164

Satellite: Aalto-2
Catalog number: 42729
Epoch time: 17252.787857
Element set: 999
Inclination: 51.640200 deg
RA of node: 335.129400 deg
Eccentricity: 0.000360
Arg of perigee: 288.374500 deg
Mean anomaly: 71.685500 deg
Mean motion: 15.576656 rev/day
Decay rate: 3.982700e-04 rev/day^2
Epoch rev: 1647

Satellite: SUSat
Catalog number: 42730
Epoch time: 17252.664028
Element set: 999
Inclination: 51.640200 deg
RA of node: 335.801100 deg
Eccentricity: 0.000364
Arg of perigee: 285.807200 deg
Mean anomaly: 74.251800 deg
Mean motion: 15.575130 rev/day
Decay rate: 4.025400e-04 rev/day^2
Epoch rev: 1644

Satellite: i-INSPIRE II
Catalog number: 42731
Epoch time: 17252.779355
Element set: 999
Inclination: 51.639300 deg
RA of node: 335.064400 deg
Eccentricity: 0.000602
Arg of perigee: 217.925300 deg
Mean anomaly: 142.131600 deg
Mean motion: 15.580502 rev/day
Decay rate: 5.291100e-04 rev/day^2
Epoch rev: 1651

Satellite: PolyITAN-2-SAU
Catalog number: 42732
Epoch time: 17252.656788
Element set: 999
Inclination: 51.639200 deg
RA of node: 335.744700 deg
Eccentricity: 0.000623
Arg of perigee: 216.015600 deg
Mean anomaly: 144.041700 deg
Mean motion: 15.577399 rev/day
Decay rate: 4.368600e-04 rev/day^2
Epoch rev: 1649

Satellite: SNUSAT-1
Catalog number: 42733
Epoch time: 17252.664606
Element set: 999
Inclination: 51.639700 deg
RA of node: 335.798200 deg
Eccentricity: 0.000612
Arg of perigee: 217.329900 deg
Mean anomaly: 142.726800 deg
Mean motion: 15.575534 rev/day
Decay rate: 4.280700e-04 rev/day^2
Epoch rev: 1649

Satellite: ExAlta-1
Catalog number: 42734
Epoch time: 17252.843768
Element set: 999
Inclination: 51.639300 deg
RA of node: 334.746400 deg
Eccentricity: 0.000794
Arg of perigee: 244.049600 deg
Mean anomaly: 115.967800 deg
Mean motion: 15.580035 rev/day
Decay rate: 4.907800e-04 rev/day^2
Epoch rev: 1647

Satellite: Aoxiang-1
Catalog number: 42735
Epoch time: 17252.607674
Element set: 999
Inclination: 51.640000 deg
RA of node: 336.172700 deg
Eccentricity: 0.000761
Arg of perigee: 264.372600 deg
Mean anomaly: 95.639900 deg
Mean motion: 15.571916 rev/day
Decay rate: 3.386900e-04 rev/day^2
Epoch rev: 178

Satellite: BeEagleSat
Catalog number: 42736
Epoch time: 17252.605303
Element set: 999
Inclination: 51.640000 deg
RA of node: 336.157000 deg
Eccentricity: 0.000751
Arg of perigee: 264.144900 deg
Mean anomaly: 95.868700 deg
Mean motion: 15.573341 rev/day
Decay rate: 3.716900e-04 rev/day^2
Epoch rev: 1654

Satellite: Atlantis
Catalog number: 42737
Epoch time: 17252.591582
Element set: 999
Inclination: 51.638100 deg
RA of node: 335.310000 deg
Eccentricity: 0.000733
Arg of perigee: 271.931500 deg
Mean anomaly: 88.083800 deg
Mean motion: 15.602745 rev/day
Decay rate: 8.299600e-04 rev/day^2
Epoch rev: 164

