ZA-AEROSAT              
1 42713U 98067LU  17252.78064861  .00030644  00000-0  41529-3 0  9995
2 42713  51.6400 335.0821 0001462 221.0101 139.0782 15.57399625 17681
LINK                    
1 42714U 98067LV  17252.50601371  .00048858  00000-0  63381-3 0  9995
2 42714  51.6397 336.2439 0001408 248.0682 112.0161 15.58346256 17751
UPSAT                   
1 42716U 98067LX  17252.49090663  .00041885  00000-0  54352-3 0  9992
2 42716  51.6404 336.1468 0004714 295.3374  64.7130 15.58397268 17779
SPACECUBE               
1 42717U 98067LY  17252.76552303  .00038749  00000-0  51377-3 0  9996
2 42717  51.6401 334.9798 0004551 294.7609  65.2909 15.57860020 17053
HOOPOE                  
1 42718U 98067LZ  17252.69240041  .00043253  00000-0  56603-3 0  9995
2 42718  51.6400 335.2436 0004588 294.7647  65.2868 15.58158315 17049
CHALLENGER              
1 42721U 98067MA  17252.75715216  .00058310  00000-0  74253-3 0  9998
2 42721  51.6395 334.9201 0007086 272.4422  87.5759 15.58738249 16755
NJUST-1                 
1 42722U 98067MB  17252.61028842  .00035474  00000-0  48392-3 0  9997
2 42722  51.6401 336.1910 0007083 268.6002  91.4179 15.57123866 16722
UNSW-ECO                
1 42723U 98067MC  17252.84712715  .00046194  00000-0  60954-3 0  9991
2 42723  51.6401 334.7752 0006928 270.8980  89.1219 15.57893653 16747
DUTHSAT                 
1 42724U 98067MD  17252.76643978  .00057360  00000-0  73581-3 0  9994
2 42724  51.6403 334.9848 0006264 276.8726  83.1554 15.58556825 16659
LILACSAT-1              
1 42725U 98067ME  17252.61123835  .00038678  00000-0  52402-3 0  9994
2 42725  51.6402 336.1992 0006138 273.7907  86.2383 15.57273306 16642
NSIGHT-1                
1 42726U 98067MF  17252.76719088  .00023374  00000-0  33222-3 0  9998
2 42726  51.6407 335.7425 0006090 272.4273  87.6021 15.56255961 16654
QBITO                   
1 42728U 98067MH  17252.59556915  .00043174  00000-0  57584-3 0  9996
2 42728  51.6409 336.0982 0003638 287.9264  72.1331 15.57655429 16439
AALTO-2                 
1 42729U 98067MJ  17252.78785672  .00039827  00000-0  53174-3 0  9993
2 42729  51.6402 335.1294 0003601 288.3745  71.6855 15.57665637 16479
SUSAT                   
1 42730U 98067MK  17252.66402808  .00040254  00000-0  54040-3 0  9998
2 42730  51.6402 335.8011 0003644 285.8072  74.2518 15.57513016 16442
I-INSPIRE II            
1 42731U 98067ML  17252.77935482  .00052911  00000-0  69272-3 0  9996
2 42731  51.6393 335.0644 0006019 217.9253 142.1316 15.58050213 16517
POLYITAN-2-SAU          
1 42732U 98067MM  17252.65678769  .00043686  00000-0  58043-3 0  9999
2 42732  51.6392 335.7447 0006233 216.0156 144.0417 15.57739884 16492
SNUSAT-1B               
1 42733U 98067MN  17252.66460563  .00042807  00000-0  57294-3 0  9993
2 42733  51.6397 335.7982 0006117 217.3299 142.7268 15.57553438 16493
EXALTA-1                
1 42734U 98067MP  17252.84376773  .00049078  00000-0  64408-3 0  9995
2 42734  51.6393 334.7464 0007945 244.0496 115.9678 15.58003534 16473
AOXIANG-1               
1 42735U 98067MQ  17252.60767369  .00033869  00000-0  46119-3 0  9995
2 42735  51.6400 336.1727 0007609 264.3726  95.6399 15.57191649 17850
BEEAGLESAT              
1 42736U 98067MR  17252.60530270  .00037169  00000-0  50261-3 0  9995
2 42736  51.6400 336.1570 0007510 264.1449  95.8687 15.57334057 16547
ATLANTIS                
1 42737U 98067MS  17252.59158237  .00082996  00000-0  99129-3 0  9997
2 42737  51.6381 335.3100 0007332 271.9315  88.0838 15.60274451 16442
